GAOFEN-11 01            
1 43585U 18063A   26189.98003404  .00007841  00000+0  11448-3 0  9997
2 43585  97.1278 256.8048 0002470 228.0170 132.0876 15.55928119443731
ICESAT-2                
1 43613U 18070A   26189.89421655  .00006317  00000+0  22929-3 0  9992
2 43613  92.0084 296.8449 0005889  78.7804 281.4107 15.28275616435770
HYSIS                   
1 43719U 18096A   26189.93378291  .00000332  00000+0  52431-4 0  9992
2 43719  97.9827 256.5103 0001840  87.6000 272.5421 14.78661077410638
KAZSTSAT                
1 43783U 18099AB  26189.31216530  .00001359  00000+0  11394-3 0  9997
2 43783  97.4314 220.2864 0007847   7.0767 353.0566 14.99942577414477
SAUDISAT 5A             
1 43831U 18102A   26189.96981303  .00003719  00000+0  13749-3 0  9992
2 43831  97.3057 251.1323 0010898  63.2152 297.0202 15.28278802419003
SAUDISAT 5B             
1 43833U 18102C   26189.98507796  .00003307  00000+0  12162-3 0  9997
2 43833  97.3166 254.2565 0011665  64.6779 295.5668 15.28523640419126
GAOFEN-10R              
1 44622U 19066A   26189.94666111  .00000770  00000+0  10132-3 0  9993
2 44622  98.0512 143.6850 0007111  69.2472 290.9503 14.83048237365600
CARTOSAT-3              
1 44804U 19081A   26189.95812840  .00002229  00000+0  10864-3 0  9998
2 44804  97.4295 251.4737 0013449  80.7169 279.5586 15.19294874366770
GAOFEN-12 01            
1 44819U 19082A   26189.97807031  .00000256  00000+0  40077-4 0  9991
2 44819  97.8105 195.7827 0001304  52.2544 307.8787 14.80476315357315
CSG-1                   
1 44873U 19092A   26189.99228522  .00000253  00000+0  38295-4 0  9992
2 44873  97.8894  13.2795 0001498  91.0359 269.1025 14.82147925354706
NEMO-HD                 
1 46277U 20061F   26189.95903196  .00007248  00000+0  15537-3 0  9997
2 46277  97.1908 251.6968 0001157  80.5591 279.5789 15.45045620325347
SENTINEL-6A             
1 46984U 20086A   26189.94674535 -.00000070  00000+0 -39406-4 0  9990
2 46984  66.0415  89.8591 0007817 269.9936  90.0184 12.80930089263117
CAS500-1                
1 47932U 21022A   26189.98259391  .00004003  00000+0  18822-3 0  9994
2 47932  97.3874  84.7921 0004508 190.1129 170.0016 15.20136811294071
GAOFEN-12 02            
1 48079U 21026A   26189.99147447  .00000229  00000+0  37043-4 0  9993
2 48079  97.9929 188.0837 0005426 148.9318 211.2215 14.80312918284983
PLEIADES NEO 3          
1 48268U 21034A   26189.99860483 -.00000359  00000+0 -38951-4 0  9999
2 48268  97.8935 264.4513 0001346  92.6488 267.4879 14.81671800280882
PLEIADES NEO 4          
1 49070U 21073E   26189.96482704  .00000665  00000+0  91074-4 0  9990
2 49070  97.8932 264.4144 0001314  93.6706 266.4657 14.81670313264591
LANDSAT 9               
1 49260U 21088A   26189.75885797  .00000226  00000+0  60329-4 0  9995
2 49260  98.2272 259.6744 0001172  89.8666 270.2667 14.57112192254143
CSG-2                   
1 51444U 22008A   26189.95848251  .00000321  00000+0  46886-4 0  9999
2 51444  97.8898  13.2409 0001559  84.8376 275.3016 14.82149018239819
GAOFEN-12 03            
1 52912U 22069A   26189.95755340  .00000258  00000+0  40770-4 0  9998
2 52912  97.8249  77.2763 0002490  78.6494 281.4998 14.80068612217833
SWOT                    
1 54754U 22173A   26189.92470173  .00000002  00000+0  33115-5 0  9998
2 54754  77.6105   5.9633 0000284  76.5025 283.6158 14.00171970182192
GAOFEN-12 04            
1 57654U 23123A   26189.97599613  .00000657  00000+0  94195-4 0  9992
2 57654  97.9107 107.6700 0003781  63.0976 297.0622 14.79767701155854
PARS 1                  
1 59065U 24039Q   26189.99813575  .00007875  00000+0  16198-3 0  9990
2 59065  97.4833 171.6128 0010538  47.0146 313.1985 15.46194592132019
RESURS-P 4              
1 59371U 24061A   26190.01081782  .00001951  00000+0  65071-4 0  9991
2 59371  97.2753 137.5317 0003208  99.0135 261.1471 15.32256485127101
LEGION 1                
1 59625U 24081A   26189.93204615  .00002029  00000+0  10661-3 0  9997
2 59625  97.5010 267.5582 0007778 295.8566  64.1864 15.16816803120838
LEGION 2                
1 59626U 24081B   26189.96234164  .00002435  00000+0  12731-3 0  9994
2 59626  97.5010 267.6851 0009900 258.0118 102.0005 15.16795588120848
ALOS-4 (DAICHI-4)       
1 60182U 24123A   26189.93631032  .00000995  00000+0  14006-3 0  9998
2 60182  97.9220 286.8000 0001608  98.2689 261.8705 14.79470160109096
LEGION 3                
1 60452U 24146A   26189.74554068  .00001989  00000+0  11647-3 0  9997
2 60452  45.0018 274.9587 0008746 300.5893  59.4123 15.15629295105298
LEGION 4                
1 60453U 24146B   26189.87757413  .00002818  00000+0  15675-3 0  9998
2 60453  45.0026   6.1229 0011487  72.2685 287.9447 15.16208592104160
SENTINEL-2C             
1 60989U 24157A   26189.78093829  .00000057  00000+0  38246-4 0  9991
2 60989  98.5685 264.2568 0000942  97.3692 262.7598 14.30814520 96078
IONOSFERA-M 1           
1 61735U 24199A   26189.92447389  .00000026  00000+0  31353-4 0  9995
2 61735  98.7146  62.8644 0002214  81.1134 279.0294 14.22758234130797
