OBJECT_NAME,OBJECT_ID,EPOCH,MEAN_MOTION,ECCENTRICITY,INCLINATION,RA_OF_ASC_NODE,ARG_OF_PERICENTER,MEAN_ANOMALY,EPHEMERIS_TYPE,CLASSIFICATION_TYPE,NORAD_CAT_ID,ELEMENT_SET_NO,REV_AT_EPOCH,BSTAR,MEAN_MOTION_DOT,MEAN_MOTION_DDOT
GAOFEN-11 01,2018-063A,2026-07-08T23:31:14.941056,15.55928119,.00024705,97.1278,256.8048,228.0170,132.0876,0,U,43585,999,44373,.11448101E-3,.7841E-4,0
ICESAT-2,2018-070A,2026-07-08T21:27:40.309920,15.28275616,.00058892,92.0084,296.8449,78.7804,281.4107,0,U,43613,999,43577,.22929158E-3,.6317E-4,0
HYSIS,2018-096A,2026-07-08T22:24:38.843424,14.78661077,.000184,97.9827,256.5103,87.6000,272.5421,0,U,43719,999,41063,.52430963E-4,.332E-5,0
KAZSTSAT,2018-099AB,2026-07-08T07:29:31.081920,14.99942577,.00078473,97.4314,220.2864,7.0767,353.0566,0,U,43783,999,41447,.11393628E-3,.1359E-4,0
SAUDISAT 5A,2018-102A,2026-07-08T23:16:31.845792,15.28278802,.00108989,97.3057,251.1323,63.2152,297.0202,0,U,43831,999,41900,.13748707E-3,.3719E-4,0
SAUDISAT 5B,2018-102C,2026-07-08T23:38:30.735744,15.28523640,.00116651,97.3166,254.2565,64.6779,295.5668,0,U,43833,999,41912,.12161771E-3,.3307E-4,0
GAOFEN-10R,2019-066A,2026-07-08T22:43:11.519904,14.83048237,.00071116,98.0512,143.6850,69.2472,290.9503,0,U,44622,999,36560,.10131604E-3,.77E-5,0
CARTOSAT-3,2019-081A,2026-07-08T22:59:42.293760,15.19294874,.00134492,97.4295,251.4737,80.7169,279.5586,0,U,44804,999,36677,.10863506E-3,.2229E-4,0
GAOFEN-12 01,2019-082A,2026-07-08T23:28:25.274784,14.80476315,.00013049,97.8105,195.7827,52.2544,307.8787,0,U,44819,999,35731,.40077E-4,.256E-5,0
CSG-1,2019-092A,2026-07-08T23:48:53.443008,14.82147925,.00014987,97.8894,13.2795,91.0359,269.1025,0,U,44873,999,35470,.38294811E-4,.253E-5,0
NEMO-HD,2020-061F,2026-07-08T23:01:00.361344,15.45045620,.00011571,97.1908,251.6968,80.5591,279.5789,0,U,46277,999,32534,.15536871E-3,.7248E-4,0
SENTINEL-6A,2020-086A,2026-07-08T22:43:18.798240,12.80930089,.0007817,66.0415,89.8591,269.9936,90.0184,0,U,46984,999,26311,-.39406411E-4,-.7E-6,0
CAS500-1,2021-022A,2026-07-08T23:34:56.113824,15.20136811,.00045089,97.3874,84.7921,190.1129,170.0016,0,U,47932,999,29407,.18822039E-3,.4003E-4,0
GAOFEN-12 02,2021-026A,2026-07-08T23:47:43.394208,14.80312918,.00054261,97.9929,188.0837,148.9318,211.2215,0,U,48079,999,28498,.37042763E-4,.229E-5,0
PLEIADES NEO 3,2021-034A,2026-07-08T23:57:59.457312,14.81671800,.00013468,97.8935,264.4513,92.6488,267.4879,0,U,48268,999,28088,-.38951291E-4,-.359E-5,0
PLEIADES NEO 4,2021-073E,2026-07-08T23:09:21.056256,14.81670313,.00013148,97.8932,264.4144,93.6706,266.4657,0,U,49070,999,26459,.91073865E-4,.665E-5,0
LANDSAT 9,2021-088A,2026-07-08T18:12:45.328608,14.57112192,.00011723,98.2272,259.6744,89.8666,270.2667,0,U,49260,999,25414,.6032887E-4,.226E-5,0
CSG-2,2022-008A,2026-07-08T23:00:12.888864,14.82149018,.00015598,97.8898,13.2409,84.8376,275.3016,0,U,51444,999,23981,.46885504E-4,.321E-5,0
GAOFEN-12 03,2022-069A,2026-07-08T22:58:52.613760,14.80068612,.00024902,97.8249,77.2763,78.6494,281.4998,0,U,52912,999,21783,.40769525E-4,.258E-5,0
SWOT,2022-173A,2026-07-08T22:11:34.229472,14.00171970,.0000284,77.6105,5.9633,76.5025,283.6158,0,U,54754,999,18219,.3311498E-5,.2E-7,0
GAOFEN-12 04,2023-123A,2026-07-08T23:25:26.065632,14.79767701,.00037818,97.9107,107.6700,63.0976,297.0622,0,U,57654,999,15585,.94194548E-4,.657E-5,0
PARS 1,2024-039Q,2026-07-08T23:57:18.928800,15.46194592,.0010538,97.4833,171.6128,47.0146,313.1985,0,U,59065,999,13201,.16198037E-3,.7875E-4,0
RESURS-P 4,2024-061A,2026-07-09T00:15:34.659648,15.32256485,.00032087,97.2753,137.5317,99.0135,261.1471,0,U,59371,999,12710,.65071457E-4,.1951E-4,0
LEGION 1,2024-081A,2026-07-08T22:22:08.787360,15.16816803,.00077784,97.5010,267.5582,295.8566,64.1864,0,U,59625,999,12083,.10660622E-3,.2029E-4,0
LEGION 2,2024-081B,2026-07-08T23:05:46.317696,15.16795588,.00099002,97.5010,267.6851,258.0118,102.0005,0,U,59626,999,12084,.12731308E-3,.2435E-4,0
ALOS-4 (DAICHI-4),2024-123A,2026-07-08T22:28:17.211648,14.79470160,.00016085,97.9220,286.8000,98.2689,261.8705,0,U,60182,999,10909,.14006394E-3,.995E-5,0
LEGION 3,2024-146A,2026-07-08T17:53:34.714752,15.15629295,.00087464,45.0018,274.9587,300.5893,59.4123,0,U,60452,999,10529,.1164659E-3,.1989E-4,0
LEGION 4,2024-146B,2026-07-08T21:03:42.404832,15.16208592,.00114876,45.0026,6.1229,72.2685,287.9447,0,U,60453,999,10416,.15674838E-3,.2818E-4,0
SENTINEL-2C,2024-157A,2026-07-08T18:44:33.068256,14.30814520,.00009421,98.5685,264.2568,97.3692,262.7598,0,U,60989,999,9607,.38245535E-4,.57E-6,0
IONOSFERA-M 1,2024-199A,2026-07-08T22:11:14.544096,14.22758234,.00022148,98.7146,62.8644,81.1134,279.0294,0,U,61735,999,13079,.31353255E-4,.26E-6,0
